[{"OBJECT_NAME":"KOREASAT 5A","OBJECT_ID":"2017-067A","EPOCH":"2026-03-09T22:56:11.184864","MEAN_MOTION":1.00271974,"ECCENTRICITY":0.000187,"INCLINATION":0.0129,"RA_OF_ASC_NODE":94.7805,"ARG_OF_PERICENTER":286.5434,"MEAN_ANOMALY":243.5024,"EPHEMERIS_TYPE":0,"CLASSIFICATION_TYPE":"U","NORAD_CAT_ID":42984,"ELEMENT_SET_NO":999,"REV_AT_EPOCH":3053,"BSTAR":0,"MEAN_MOTION_DOT":-3.57e-6,"MEAN_MOTION_DDOT":0},{"OBJECT_NAME":"RADUGA-1 4","OBJECT_ID":"1999-010A","EPOCH":"2026-03-09T17:42:38.643264","MEAN_MOTION":1.00258885,"ECCENTRICITY":0.00074794,"INCLINATION":15.6134,"RA_OF_ASC_NODE":2.4546,"ARG_OF_PERICENTER":287.9898,"MEAN_ANOMALY":256.0317,"EPHEMERIS_TYPE":0,"CLASSIFICATION_TYPE":"U","NORAD_CAT_ID":25642,"ELEMENT_SET_NO":999,"REV_AT_EPOCH":9895,"BSTAR":0,"MEAN_MOTION_DOT":-3.68e-6,"MEAN_MOTION_DDOT":0}]
